STARLINK-1571_new
1 16081C 20055BG  21326.13942440 -.00007137  00000-0 -47828-3 0  3268
2 16081  53.0539 298.1185 0001856  60.1475 238.7117 15.06399042    12
STARLINK-1571_old
1 26081C 20055BG  21325.17654321  .00003834  00000-0  25687-3 0  3255
2 26081  53.0537 302.4411 0001895  59.5151  54.6855 15.06399095    19
